ONEWEB-0319             
1 49105U 21075AG  24318.48951849 -.00000047  00000+0 -15520-3 0  9998
2 49105  87.9075 121.5673 0001516 110.6334 249.4961 13.17648730157135
ONEWEB-0323             
1 49106U 21075AH  24318.49468470  .00000381  00000+0  10244-2 0  9999
2 49106  87.8851 106.2916 0001639 126.2603 233.8677 13.12440019158389
ONEWEB-0329             
1 49107U 21075AJ  24318.72577277 -.00000001  00000+0 -35458-4 0  9999
2 49107  87.9073 121.5246 0001419  98.9754 261.1538 13.17647938157148
ONEWEB-0330             
1 49108U 21075AK  24318.95526779  .00000077  00000+0  16600-3 0  9994
2 49108  87.9075 121.4803 0001268  93.7460 266.3816 13.17648172158203
ONEWEB-0292             
1 49186U 21083A   24319.37661717  .00000093  00000+0  21872-3 0  9993
2 49186  87.8920  75.5897 0001736 106.7996 253.3323 13.13472561156107
ONEWEB-0303             
1 49187U 21083B   24319.45673488  .00000034  00000+0  53196-4 0  9991
2 49187  87.9092  90.8154 0001691 105.6570 254.4749 13.18685541154854
ONEWEB-0306             
1 49188U 21083C   24319.37135509  .00000084  00000+0  17976-3 0  9990
2 49188  87.9094  90.8184 0001476  93.1802 266.9499 13.18689956154887
ONEWEB-0307             
1 49189U 21083D   24319.37106235 -.00000120  00000+0 -36485-3 0  9994
2 49189  87.8921  75.5925 0001386  92.7027 267.4261 13.13472712156108
